[
    {
        "Altitude(m)": 570986.9793336118,
        "Argument of Periapsis(deg)": 0.033114955553567506,
        "Eccentricity": 0.0,
        "Inclination(deg)": 53.0,
        "Latitude(deg)": -50.94392421385437,
        "Longitude(deg)": -76.5256641764075,
        "Mean Anomaly(deg)": -104.087435662112,
        "RAAN(deg)": 139.95071684264008,
        "Satellite Name": "Starlink Shell 1 628",
        "Satellite Number": 628,
        "Semi-Major Axis(m)": 6931778.249405717,
        "Time(s)": 950
    },
    {
        "Altitude(m)": 571060.763917624,
        "Argument of Periapsis(deg)": 0.03346353403307874,
        "Eccentricity": 0.0,
        "Inclination(deg)": 53.0,
        "Latitude(deg)": -51.131462052969745,
        "Longitude(deg)": -75.62170839422974,
        "Mean Anomaly(deg)": -103.46060445855535,
        "RAAN(deg)": 139.9501980725626,
        "Satellite Name": "Starlink Shell 1 628",
        "Satellite Number": 628,
        "Semi-Major Axis(m)": 6931778.249405717,
        "Time(s)": 960
    },
    {
        "Altitude(m)": 571131.3804354134,
        "Argument of Periapsis(deg)": 0.03381211251258998,
        "Eccentricity": 0.0,
        "Inclination(deg)": 53.0,
        "Latitude(deg)": -51.311295153041414,
        "Longitude(deg)": -74.71023756683685,
        "Mean Anomaly(deg)": -102.83377325499863,
        "RAAN(deg)": 139.94967930248512,
        "Satellite Name": "Starlink Shell 1 628",
        "Satellite Number": 628,
        "Semi-Major Axis(m)": 6931778.249405717,
        "Time(s)": 970
    },
    {
        "Altitude(m)": 571198.8007458537,
        "Argument of Periapsis(deg)": 0.034160690992101214,
        "Eccentricity": 0.0,
        "Inclination(deg)": 53.0,
        "Latitude(deg)": -51.48331450194838,
        "Longitude(deg)": -73.79146608710423,
        "Mean Anomaly(deg)": -102.20694205144194,
        "RAAN(deg)": 139.94916053240766,
        "Satellite Name": "Starlink Shell 1 628",
        "Satellite Number": 628,
        "Semi-Major Axis(m)": 6931778.249405717,
        "Time(s)": 980
    },
    {
        "Altitude(m)": 571262.9979740751,
        "Argument of Periapsis(deg)": 0.034509269471612446,
        "Eccentricity": 0.0,
        "Inclination(deg)": 53.0,
        "Latitude(deg)": -51.64741392770037,
        "Longitude(deg)": -72.8656240461326,
        "Mean Anomaly(deg)": -101.58011084788524,
        "RAAN(deg)": 139.9486417623302,
        "Satellite Name": "Starlink Shell 1 628",
        "Satellite Number": 628,
        "Semi-Major Axis(m)": 6931778.249405717,
        "Time(s)": 990
    }
]